OBJECT_NAME,OBJECT_ID,EPOCH,MEAN_MOTION,ECCENTRICITY,INCLINATION,RA_OF_ASC_NODE,ARG_OF_PERICENTER,MEAN_ANOMALY,EPHEMERIS_TYPE,CLASSIFICATION_TYPE,NORAD_CAT_ID,ELEMENT_SET_NO,REV_AT_EPOCH,BSTAR,MEAN_MOTION_DOT,MEAN_MOTION_DDOT
KUIPER-00383,2026-118B,2026-06-27T18:30:07.359264,15.34374339,.00104327,51.8614,2.5788,224.8911,135.1231,0,U,69268,999,560,.68587082E-3,.22903E-3,0
KUIPER-00527,2026-118C,2026-06-27T21:27:10.198656,15.34344372,.00098097,51.8619,1.9096,221.3899,138.6344,0,U,69269,999,562,.37465911E-3,.12305E-3,0
KUIPER-00562,2026-118D,2026-06-25T13:25:38.076672,15.38854748,.0001319,51.8720,12.5412,134.3702,225.7394,0,U,69270,999,527,.98221E-3,.38146E-3,0
KUIPER-00570,2026-118E,2026-06-27T22:00:01.999584,15.34417838,.0009982,51.8589,1.8290,230.7171,235.7862,0,U,69271,999,518,-.70474533E-1,-.2150513E-1,0
KUIPER-00572,2026-118F,2026-06-27T22:16:16.327200,15.37285487,.00068246,51.8675,1.4092,212.8349,147.2214,0,U,69272,999,563,.66016825E-3,.24195E-3,0
KUIPER-00581,2026-118G,2026-06-27T22:00:01.999584,15.34299144,.00084705,51.8669,1.5437,218.7192,35.1371,0,U,69273,999,572,-.393578E-1,-.1206781E-1,0
KUIPER-00584,2026-118H,2026-06-27T22:00:01.999584,15.22519804,.00124401,51.8714,2.1186,236.2929,68.5992,0,U,69274,999,422,-.33448121E-1,-.734663E-2,0
KUIPER-00587,2026-118J,2026-06-27T19:17:40.234560,15.36804276,.00073936,51.8635,2.0678,221.0325,139.0106,0,U,69275,999,561,-.26221384E-3,-.9967E-4,0
KUIPER-00590,2026-118K,2026-06-27T18:44:49.920576,15.38197358,.00036612,51.8694,1.9306,199.8647,160.2199,0,U,69276,999,561,.70057397E-3,.26476E-3,0
KUIPER-00592,2026-118L,2026-06-27T21:46:29.121600,15.38379622,.00031025,51.8716,1.2793,176.2641,183.8370,0,U,69277,999,563,.40531473E-3,.15219E-3,0
KUIPER-00593,2026-118M,2026-06-27T21:47:57.401664,15.38343769,.00032656,51.8724,1.2878,202.9897,157.0944,0,U,69278,999,569,.96171105E-3,.36716E-3,0
KUIPER-00594,2026-118N,2026-06-27T21:30:55.564416,15.38818346,.00005797,51.8735,1.2090,58.9185,301.1860,0,U,69279,999,563,.95681598E-3,.371E-3,0
KUIPER-00595,2026-118P,2026-06-27T21:34:54.377472,15.38799286,.00013328,51.8724,1.2276,217.7945,142.2949,0,U,69280,999,566,.86876803E-3,.33613E-3,0
KUIPER-00596,2026-118Q,2026-06-27T22:00:01.999584,15.25323225,.00129416,51.8658,2.0091,235.0347,131.3617,0,U,69281,999,493,-.83191411E-1,-.1935742E-1,0
KUIPER-00597,2026-118R,2026-06-27T22:13:39.877536,15.37304640,.00067697,51.8649,1.3939,214.0840,145.9712,0,U,69282,999,563,.70074658E-3,.25727E-3,0
KUIPER-00599,2026-118S,2026-06-27T22:06:47.748672,15.37528222,.00057815,51.8700,1.3700,211.2015,148.8629,0,U,69283,999,563,.8796411E-3,.32657E-3,0
KUIPER-00600,2026-118T,2026-06-27T19:16:05.027808,15.36931683,.00082405,51.8638,2.0622,215.5831,144.4607,0,U,69284,999,561,.72787826E-3,.26426E-3,0
KUIPER-00601,2026-118U,2026-06-27T18:51:33.734304,15.37854403,.00044488,51.8712,1.9637,195.5689,164.5162,0,U,69285,999,561,.39815449E-3,.14685E-3,0
KUIPER-00602,2026-118V,2026-06-27T18:37:18.789024,15.38461729,.00023041,51.8725,1.9000,206.3608,153.7262,0,U,69286,999,561,.72030413E-3,.27471E-3,0
KUIPER-00603,2026-118W,2026-06-27T18:53:39.872256,15.37856244,.00049868,51.8653,1.9687,200.6622,159.4164,0,U,69287,999,561,.70956842E-3,.26526E-3,0
KUIPER-00605,2026-118X,2026-06-27T20:41:24.823968,15.35978842,.00071549,51.8668,1.7162,206.7727,153.2891,0,U,69288,999,562,-.14286997E-1,-.47841E-2,0
KUIPER-00606,2026-118Y,2026-06-27T21:56:05.684352,15.37904006,.00040338,51.8704,1.3233,197.9606,162.1239,0,U,69289,999,563,.92827181E-3,.34913E-3,0
KUIPER-00607,2026-118Z,2026-06-27T22:04:05.590560,15.37648774,.0005489,51.8676,1.3555,206.8579,153.2124,0,U,69290,999,563,.56773961E-3,.20987E-3,0
KUIPER-00608,2026-118AA,2026-06-27T18:11:10.711104,15.34692536,.0007732,51.8613,2.4969,220.7661,139.2746,0,U,69291,999,560,-.12609668E-2,-.43226E-3,0
KUIPER-00610,2026-118AB,2026-06-27T18:34:10.287552,15.38411362,.00017503,51.8740,1.8852,245.4212,114.6593,0,U,69292,999,561,.6641124E-3,.25247E-3,0
KUIPER-00613,2026-118AC,2026-06-27T21:36:42.194304,15.33103631,.00107705,51.8639,1.9554,221.4536,138.5632,0,U,69293,999,562,-.16568601E-2,-.53881E-3,0
KUIPER-00618,2026-118AD,2026-06-27T22:00:01.999584,15.37233358,.00010394,51.8734,1.1452,132.1431,323.3538,0,U,69294,999,437,.15658448E-2,.58051E-3,0
KUIPER-00620,2026-118AE,2026-06-27T18:33:08.936640,15.38387089,.00018939,51.8724,1.8802,155.8853,204.2224,0,U,69295,999,561,.72241846E-3,.27485E-3,0
STARLINK-37501,2026-119A,2026-06-27T22:00:01.999584,15.33386227,.0001509,97.2845,204.8057,86.7782,51.5597,0,U,69296,999,560,.21999068E-2,.7149E-3,0
STARLINK-37496,2026-119B,2026-06-27T19:20:39.704640,15.49208395,.00006929,97.2858,204.7420,104.5110,255.6218,0,U,69297,999,568,.10492815E-2,.57433E-3,0
