KUIPER-00383            
1 69268U 26118B   26178.77091851  .00022903  00000+0  68587-3 0  9993
2 69268  51.8614   2.5788 0010432 224.8911 135.1231 15.34374339  5604
KUIPER-00527            
1 69269U 26118C   26178.89386804  .00012305  00000+0  37466-3 0  9999
2 69269  51.8619   1.9096 0009809 221.3899 138.6344 15.34344372  5627
KUIPER-00562            
1 69270U 26118D   26176.55946848  .00038146  00000+0  98221-3 0  9999
2 69270  51.8720  12.5412 0001319 134.3702 225.7394 15.38854748  5277
KUIPER-00570            
1 69271U 26118E   26178.91668981 -.02150513  00000+0 -70475-1 0  9997
2 69271  51.8589   1.8290 0009982 230.7171 235.7862 15.34417838  5183
KUIPER-00572            
1 69272U 26118F   26178.92796675  .00024195  00000+0  66017-3 0  9992
2 69272  51.8675   1.4092 0006824 212.8349 147.2214 15.37285487  5630
KUIPER-00581            
1 69273U 26118G   26178.91668981 -.01206781  00000+0 -39358-1 0  9992
2 69273  51.8669   1.5437 0008470 218.7192  35.1371 15.34299144  5729
KUIPER-00584            
1 69274U 26118H   26178.91668981 -.00734663  00000+0 -33448-1 0  9991
2 69274  51.8714   2.1186 0012440 236.2929  68.5992 15.22519804  4222
KUIPER-00587            
1 69275U 26118J   26178.80393790 -.00009967  00000+0 -26221-3 0  9998
2 69275  51.8635   2.0678 0007393 221.0325 139.0106 15.36804276  5613
KUIPER-00590            
1 69276U 26118K   26178.78113334  .00026476  00000+0  70057-3 0  9998
2 69276  51.8694   1.9306 0003661 199.8647 160.2199 15.38197358  5614
KUIPER-00592            
1 69277U 26118L   26178.90728150  .00015219  00000+0  40531-3 0  9998
2 69277  51.8716   1.2793 0003102 176.2641 183.8370 15.38379622  5636
KUIPER-00593            
1 69278U 26118M   26178.90830326  .00036716  00000+0  96171-3 0  9994
2 69278  51.8724   1.2878 0003265 202.9897 157.0944 15.38343769  5699
KUIPER-00594            
1 69279U 26118N   26178.89647644  .00037100  00000+0  95682-3 0  9996
2 69279  51.8735   1.2090 0000579  58.9185 301.1860 15.38818346  5633
KUIPER-00595            
1 69280U 26118P   26178.89924048  .00033613  00000+0  86877-3 0  9995
2 69280  51.8724   1.2276 0001332 217.7945 142.2949 15.38799286  5662
KUIPER-00596            
1 69281U 26118Q   26178.91668981 -.01935742  00000+0 -83191-1 0  9991
2 69281  51.8658   2.0091 0012941 235.0347 131.3617 15.25323225  4932
KUIPER-00597            
1 69282U 26118R   26178.92615599  .00025727  00000+0  70075-3 0  9999
2 69282  51.8649   1.3939 0006769 214.0840 145.9712 15.37304640  5630
KUIPER-00599            
1 69283U 26118S   26178.92138598  .00032657  00000+0  87964-3 0  9994
2 69283  51.8700   1.3700 0005781 211.2015 148.8629 15.37528222  5634
KUIPER-00600            
1 69284U 26118T   26178.80283597  .00026426  00000+0  72788-3 0  9997
2 69284  51.8638   2.0622 0008240 215.5831 144.4607 15.36931683  5616
KUIPER-00601            
1 69285U 26118U   26178.78580711  .00014685  00000+0  39815-3 0  9991
2 69285  51.8712   1.9637 0004448 195.5689 164.5162 15.37854403  5612
KUIPER-00602            
1 69286U 26118V   26178.77591191  .00027471  00000+0  72030-3 0  9998
2 69286  51.8725   1.9000 0002304 206.3608 153.7262 15.38461729  5619
KUIPER-00603            
1 69287U 26118W   26178.78726704  .00026526  00000+0  70957-3 0  9996
2 69287  51.8653   1.9687 0004986 200.6622 159.4164 15.37856244  5615
KUIPER-00605            
1 69288U 26118X   26178.86209287 -.00478410  00000+0 -14287-1 0  9995
2 69288  51.8668   1.7162 0007154 206.7727 153.2891 15.35978842  5628
KUIPER-00606            
1 69289U 26118Y   26178.91395468  .00034913  00000+0  92827-3 0  9991
2 69289  51.8704   1.3233 0004033 197.9606 162.1239 15.37904006  5634
KUIPER-00607            
1 69290U 26118Z   26178.91950915  .00020987  00000+0  56774-3 0  9994
2 69290  51.8676   1.3555 0005489 206.8579 153.2124 15.37648774  5637
KUIPER-00608            
1 69291U 26118AA  26178.75776286 -.00043226  00000+0 -12610-2 0  9997
2 69291  51.8613   2.4969 0007732 220.7661 139.2746 15.34692536  5603
KUIPER-00610            
1 69292U 26118AB  26178.77373018  .00025247  00000+0  66411-3 0  9996
2 69292  51.8740   1.8852 0001750 245.4212 114.6593 15.38411362  5617
KUIPER-00613            
1 69293U 26118AC  26178.90048836 -.00053881  00000+0 -16569-2 0  9994
2 69293  51.8639   1.9554 0010770 221.4536 138.5632 15.33103631  5622
KUIPER-00618            
1 69294U 26118AD  26178.91668981  .00058051  00000+0  15658-2 0  9995
2 69294  51.8734   1.1452 0001039 132.1431 323.3538 15.37233358  4372
KUIPER-00620            
1 69295U 26118AE  26178.77302010  .00027485  00000+0  72242-3 0  9998
2 69295  51.8724   1.8802 0001893 155.8853 204.2224 15.38387089  5615
STARLINK-37501          
1 69296U 26119A   26178.91668981  .00071490  00000+0  21999-2 0  9995
2 69296  97.2845 204.8057 0001509  86.7782  51.5597 15.33386227  5601
STARLINK-37496          
1 69297U 26119B   26178.80601510  .00057433  00000+0  10493-2 0  9997
2 69297  97.2858 204.7420 0000692 104.5110 255.6218 15.49208395  5686
